[{"OBJECT_NAME":"TRANSPORTER-11 OBJECT A","OBJECT_ID":"2024-149A","EPOCH":"2026-03-09T17:54:54.302112","MEAN_MOTION":15.31141332,"ECCENTRICITY":0.00031096,"INCLINATION":97.378,"RA_OF_ASC_NODE":149.0949,"ARG_OF_PERICENTER":191.001,"MEAN_ANOMALY":169.1164,"EPHEMERIS_TYPE":0,"CLASSIFICATION_TYPE":"U","NORAD_CAT_ID":60468,"ELEMENT_SET_NO":999,"REV_AT_EPOCH":8683,"BSTAR":0.00036053677,"MEAN_MOTION_DOT":0.00010774,"MEAN_MOTION_DDOT":0},{"OBJECT_NAME":"STARLINK-34330","OBJECT_ID":"2025-117AA","EPOCH":"2026-03-09T22:23:27.483936","MEAN_MOTION":15.30208324,"ECCENTRICITY":0.00013017,"INCLINATION":53.1603,"RA_OF_ASC_NODE":38.4165,"ARG_OF_PERICENTER":102.1747,"MEAN_ANOMALY":257.9399,"EPHEMERIS_TYPE":0,"CLASSIFICATION_TYPE":"U","NORAD_CAT_ID":64227,"ELEMENT_SET_NO":999,"REV_AT_EPOCH":4456,"BSTAR":0.00092481026,"MEAN_MOTION_DOT":0.00027138,"MEAN_MOTION_DDOT":0}]
